IRIDIUM 65 [+]          
1 25288U 98021D   16050.52751514  .00000100  00000-0  28818-4 0  9999
2 25288  86.3923  66.0587 0002385  93.9639 266.1829 14.34220314935697
IRIDIUM 66 [+]          
1 25289U 98021E   16050.55550456  .00000088  00000-0  24201-4 0  9992
2 25289  86.3956  65.9501 0002665  85.9011  25.9377 14.34210158935698
IRIDIUM 67 [+]          
1 25290U 98021F   16050.54020548  .00000093  00000-0  26166-4 0  9995
2 25290  86.3923  66.0900 0002261  92.5158 267.6296 14.34219924935704
IRIDIUM 68 [+]          
1 25291U 98021G   16050.54656356  .00000096  00000-0  27207-4 0  9998
2 25291  86.3924  66.1968 0002222  94.2725 265.8724 14.34220359935673
IRIDIUM 69 [-]          
1 25319U 98026A   16050.56456072  .00000286  00000-0  87219-4 0  9999
2 25319  86.3961  89.1926 0004082  79.7648 280.4010 14.38554680933504
IRIDIUM 71 [-]          
1 25320U 98026B   16050.55513743  .00000272  00000-0  81738-4 0  9994
2 25320  86.3940  85.3182 0003974 111.4089 248.7534 14.38980621933918
IRIDIUM 70 [+]          
1 25342U 98032A   16050.59386669  .00000092  00000-0  25797-4 0  9997
2 25342  86.3929  66.3961 0002296  94.8660  18.5622 14.34219700929788
IRIDIUM 72 [+]          
1 25343U 98032B   16050.58114102  .00000078  00000-0  20856-4 0  9993
2 25343  86.3922  66.0445 0002267  92.6402  20.5812 14.34215867929788
IRIDIUM 73 [-]          
1 25344U 98032C   16050.52637323  .00000396  00000-0  99449-4 0  9990
2 25344  86.4399  47.3250 0001656 100.2998 259.8393 14.48895688937512
IRIDIUM 74 [S]          
1 25345U 98032D   16050.53465926  .00000148  00000-0  38315-4 0  9990
2 25345  86.4434  66.3954 0002384  87.7747  22.8657 14.42953488933003
IRIDIUM 75 [+]          
1 25346U 98032E   16050.58820516  .00000085  00000-0  23409-4 0  9994
2 25346  86.3926  66.2769 0002255  91.9835  24.8867 14.34218921930351
IRIDIUM 3 [+]           
1 25431U 98048A   16050.57165440  .00000235  00000-0  76796-4 0  9997
2 25431  86.3945  97.9030 0002337  98.5905  13.1804 14.34212910916292
IRIDIUM 76 [+]          
1 25432U 98048B   16050.59038340  .00000224  00000-0  72960-4 0  9995
2 25432  86.3939  97.6651 0002160  98.0614  12.2698 14.34218538916280
IRIDIUM 82 [+]          
1 25467U 98051A   16050.53833321  .00000001  00000-0 -67494-5 0  9994
2 25467  86.3955 224.2519 0002223  84.7450 275.4000 14.34216381917293
IRIDIUM 81 [+]          
1 25468U 98051B   16050.53198175  .00000096  00000-0  27077-4 0  9991
2 25468  86.3949 223.8987 0002030  89.1847 270.9581 14.34218813913513
IRIDIUM 80 [+]          
1 25469U 98051C   16050.52376481  .00000086  00000-0  23771-4 0  9995
2 25469  86.3952 224.1670 0001906  90.1588 325.7413 14.34218955913516
IRIDIUM 77 [+]          
1 25471U 98051E   16050.53042093  .00000090  00000-0  25057-4 0  9992
2 25471  86.3943 223.7820 0002025  96.0305 321.5676 14.34218974918719
IRIDIUM 2 [-]           
1 25527U 98066A   16050.39804012  .00005179  00000-0  27778-3 0  9995
2 25527  85.5344 317.4156 0012199  71.0048 289.2512 15.14663483944592
IRIDIUM 86 [+]          
1 25528U 98066B   16050.47777836  .00000280  00000-0  92824-4 0  9991
2 25528  86.3988 192.0053 0002221 100.5719 259.5727 14.34222383910038
IRIDIUM 84 [+]          
1 25530U 98066D   16050.50949569  .00000287  00000-0  95324-4 0  9997
2 25530  86.3989 192.1485 0002009  95.1438 264.9987 14.34222320907678
IRIDIUM 83 [+]          
1 25531U 98066E   16050.47144587  .00000281  00000-0  93100-4 0  9995
2 25531  86.3992 192.2698 0002015  95.3816 264.7609 14.34221836905026
IRIDIUM 20 [+]          
1 25577U 98074A   16050.53098410  .00000232  00000-0  75608-4 0  9993
2 25577  86.3937  97.6181 0002293  95.6370 264.5087 14.34220034899115
IRIDIUM 11 [+]          
1 25578U 98074B   16050.57226633  .00000249  00000-0  81698-4 0  9992
2 25578  86.3938  97.8075 0002370  93.8283  53.9084 14.34220006908083
IRIDIUM 14 [S]          
1 25777U 99032A   16050.53600054  .00000092  00000-0  25809-4 0  9995
2 25777  86.3932  66.1364 0004746  68.4034  40.9480 14.34220813885355
IRIDIUM 21 [+]          
1 25778U 99032B   16050.55288486  .00000093  00000-0  26040-4 0  9998
2 25778  86.3924  66.1540 0002109  91.4877 268.6561 14.34216073878797
IRIDIUM 91 [+]          
1 27372U 02005A   16050.54726140  .00000437  00000-0  14891-3 0  9999
2 27372  86.4000 129.9899 0002284  91.8133  40.2017 14.34215277742305
IRIDIUM 90 [S]          
1 27373U 02005B   16050.42939817  .00000358  00000-0  10122-3 0  9999
2 27373  86.4502 192.2526 0002080 105.2643 254.8788 14.42953827741590
IRIDIUM 94 [S]          
1 27374U 02005C   16050.59353266  .00000226  00000-0  73611-4 0  9993
2 27374  86.3938  97.9187 0002192 122.4622  36.7746 14.34219891746637
IRIDIUM 95 [+]          
1 27375U 02005D   16050.55976801  .00000302  00000-0  10085-3 0  9996
2 27375  86.4001 129.7686 0002157 100.0574 260.0865 14.34218925741598
IRIDIUM 96 [S]          
1 27376U 02005E   16050.39827127  .00000379  00000-0  12816-3 0  9993
2 27376  86.4044 161.2903 0000569 106.2344 253.8914 14.34222514746776
IRIDIUM 97 [+]          
1 27450U 02031A   16050.36656371  .00000330  00000-0  11070-3 0  9991
2 27450  86.4013 161.1582 0002137  92.4859 267.6582 14.34221669720885
IRIDIUM 98 [S]          
1 27451U 02031B   16050.57629334  .00000088  00000-0  24263-4 0  9993
2 27451  86.3944 224.3338 0001991  87.4757 337.6804 14.34218682721985
